SUCHAI
1 42788U 17036Z   17204.93552792  .00001393  00000-0  66413-4 0  9992
2 42788  97.4477 264.3426 0013441 140.5887 219.6329 15.20693792  4686
